COSMOS 2425 (716)       
1 29670U 06062A   19012.26093259 -.00000012  00000-0  10000-3 0  9995
2 29670  65.1792 285.4665 0022919 344.6196 283.4012  2.13104847 93763
COSMOS 2426 (717)       
1 29671U 06062B   19011.41662985 -.00000011  00000-0  10000-3 0  9999
2 29671  65.1968 285.5979 0016398 166.8270  27.7486  2.13103077 93756
COSMOS 2433 (720)       
1 32275U 07052A   19012.34137072 -.00000030  00000-0  10000-3 0  9991
2 32275  65.7839  46.3521 0004994 257.2912 262.9579  2.13104496 87289
COSMOS 2432 (719)       
1 32276U 07052B   19012.17012611 -.00000030  00000-0  10000-3 0  9994
2 32276  65.7959  46.4401 0011559 321.2529  19.0556  2.13103736 87273
COSMOS 2434 (721)       
1 32393U 07065A   19011.64157198 -.00000010  00000-0  00000-0 0  9993
2 32393  64.7940 284.3636 0002794  91.0485 139.9264  2.13102902 85976
COSMOS 2436 (723)       
1 32395U 07065C   19011.56587753 -.00000010  00000-0  10000-3 0  9994
2 32395  64.8040 284.4183 0016705 357.4034 227.0196  2.13104262 85901
COSMOS 2456 (730)       
1 36111U 09070A   19011.99000947  .00000080  00000-0  00000+0 0  9995
2 36111  64.1935 163.9653 0002948 349.2689 321.8159  2.13102832 70647
COSMOS 2457 (733)       
1 36112U 09070B   19011.95384726  .00000080  00000-0  00000-0 0  9993
2 36112  64.1759 163.8723 0006764 148.7066 260.4597  2.13101473 70655
COSMOS 2458 (734)       
1 36113U 09070C   19011.83900341  .00000079  00000-0  10000-3 0  9990
2 36113  64.1802 163.8902 0003096  52.5766 309.7134  2.13091300 70659
COSMOS 2459 (731)       
1 36400U 10007A   19011.65681315 -.00000033  00000-0  10000-3 0  9999
2 36400  65.6913  45.4128 0026316 345.9676 226.3046  2.13102050 68996
COSMOS 2461 (735)       
1 36401U 10007B   19011.90781521 -.00000032  00000-0  10000-3 0  9997
2 36401  65.6845  45.3760 0004576  60.4032 254.9767  2.13101955 68991
COSMOS 2460 (732)       
1 36402U 10007C   19012.14094848 -.00000031  00000-0  10000-3 0  9993
2 36402  65.6750  45.3353 0002189 261.1819 273.2879  2.13101501 69004
COSMOS 2464 (736)       
1 37139U 10041C   19012.32894229 -.00000011  00000-0  00000+0 0  9993
2 37139  64.3949 284.0423 0025743  10.5485 255.3687  2.13097543 65075
COSMOS 2471 (701K)      
1 37372U 11009A   19011.36734347 -.00000034  00000-0  00000+0 0  9999
2 37372  65.6702  45.3060 0010083 236.1992 213.2679  2.13107546 61266
COSMOS 2474 (742)       
1 37829U 11055A   19011.82981782  .00000081  00000-0  00000+0 0  9996
2 37829  64.5172 164.7757 0006670 236.5485 168.7861  2.13101809 56648
COSMOS 2476 (744)       
1 37867U 11064A   19012.04365237  .00000082  00000-0  00000+0 0  9995
2 37867  64.4971 164.8249 0016704 235.6977  19.7714  2.13101851 55994
COSMOS 2477 (745)       
1 37868U 11064B   19012.00355360  .00000082  00000-0  00000+0 0  9998
2 37868  64.5050 164.8779 0014425 236.6428 166.8630  2.13101699 55959
COSMOS 2475 (743)       
1 37869U 11064C   19012.01315425  .00000082  00000-0  00000+0 0  9998
2 37869  64.5125 164.8738 0018203 264.5877 103.2396  2.13101932 55969
COSMOS 2485 (747)       
1 39155U 13019A   19011.97516476  .00000082  00000-0  00000+0 0  9993
2 39155  64.6656 164.9825 0017271 230.4793  17.2667  2.13101833 44468
COSMOS 2492 (754)       
1 39620U 14012A   19012.51420791 -.00000029  00000-0  10000-3 0  9996
2 39620  65.5651  45.1765 0015085 319.8760  16.3763  2.13103356 37427
COSMOS 2500 (755)       
1 40001U 14032A   19012.07100509 -.00000031  00000-0  00000+0 0  9994
2 40001  65.5050  45.1462 0007748 220.4299 357.5754  2.13102569 35636
COSMOS 2501 (702K)      
1 40315U 14075A   19012.38858586 -.00000013  00000-0  00000+0 0  9998
2 40315  64.1192 285.1762 0015361 210.7994  50.3069  2.13098430 32049
COSMOS 2514 (751)       
1 41330U 16008A   19012.13368507 -.00000032  00000-0  00000+0 0  9997
2 41330  65.3084  45.1449 0011376 223.8237 223.6290  2.13103076 22800
COSMOS 2516 (753)       
1 41554U 16032A   19012.52312366 -.00000012  00000-0  00000+0 0  9995
2 41554  64.3411 285.0943 0011910 224.7425  52.2083  2.13101699 20418
COSMOS 2522 (752)       
1 42939U 17055A   19012.42103580 -.00000012  00000-0  00000+0 0  9994
2 42939  64.5713 285.1257 0007735 256.7673 168.3283  2.13101978 10175
